ONEWEB-0066             
1 45424U 20020A   24058.58478721  .00000474  00000+0  13020-2 0  9996
2 45424  87.9017 188.1784 0001722  89.9117 270.2208 13.11417319192506
ONEWEB-0067             
1 45425U 20020B   24058.83720507 -.00000411  00000+0 -11965-2 0  9996
2 45425  87.9015 188.0927 0001968 104.2035 255.9312 13.11413870192600
ONEWEB-0080             
1 45426U 20020C   24058.63348783  .00000051  00000+0  10877-3 0  9997
2 45426  87.9022 188.1717 0001462  89.6803 270.4493 13.11419222192536
ONEWEB-0090             
1 45427U 20020D   24058.80393374  .00000529  00000+0  14573-2 0  9999
2 45427  87.9026 188.1167 0001572 100.5443 259.5862 13.11419355192530
ONEWEB-0061             
1 45428U 20020E   24058.37862324 -.00000382  00000+0 -11127-2 0  9999
2 45428  87.9020 188.2039 0001658 102.3090 257.8224 13.11417713192424
ONEWEB-0081             
1 45429U 20020F   24058.58804755  .00000318  00000+0  86131-3 0  9992
2 45429  87.9020 188.1793 0001821  98.6268 261.5066 13.11416044192564
ONEWEB-0069             
1 45430U 20020G   24058.42570471  .00000563  00000+0  15518-2 0  9994
2 45430  87.9021 188.1995 0001573 103.1408 256.9896 13.11417544192478
ONEWEB-0031             
1 45431U 20020H   24058.62536151 -.00000607  00000+0 -17474-2 0  9998
2 45431  87.9030 188.1618 0001611 114.7016 245.4279 13.11418503192482
